*******************************************************************************
JPL/HORIZONS               1167 Dubiago (1930 PB)          2023-Sep-04 11:10:35
Rec #:    1167 (+COV) Soln.date: 2023-Aug-21_16:52:34   # obs: 6282 (1930-2023)
 
IAU76/J2000 helio. ecliptic osc. elements (au, days, deg., period=Julian yrs):
 
  EPOCH=  2457419.5 ! 2016-Feb-01.00 (TDB)         Residual RMS= .25269
   EC= .07239520902210886  QR= 3.171630228433701   TP= 2458283.8840089273
   OM= 223.6453158029371   W=  69.61378857755398   IN= 5.718783843404148
   A= 3.419161111802941    MA= 225.2491697486554   ADIST= 3.66669199517218
   PER= 6.32248            N= .155892322           ANGMOM= .031724892
   DAN= 3.31758            DDN= 3.48923            L= 293.1655815
   B= 5.3595089            MOID= 2.16142988        TP= 2018-Jun-14.3840089273
 
Asteroid physical parameters (km, seconds, rotational period in hours):
   GM= n.a.                RAD= 31.56              ROTPER= 34.818
   H= 9.78                 G= .150                 B-V= .743
                           ALBEDO= .0509           STYP= D

ASTEROID comments: 
1: soln ref.= JPL#63, OCC=0
2: source=ORB
*******************************************************************************


*******************************************************************************
Ephemeris / API_USER Mon Sep  4 11:10:35 2023 Pasadena, USA      / Horizons
*******************************************************************************
Target body name: 1167 Dubiago (1930 PB)          {source: JPL#63}
Center body name: Solar System Barycenter (0)     {source: DE441}
Center-site name: BODY CENTER
*******************************************************************************
Start time      : A.D. 2023-Aug-12 00:00:00.0000 TDB
Stop  time      : A.D. 2023-Aug-13 00:00:00.0000 TDB
Step-size       : 2880 minutes
*******************************************************************************
Center geodetic : 0.0, 0.0, 0.0                   {E-lon(deg),Lat(deg),Alt(km)}
Center cylindric: 0.0, 0.0, 0.0                   {E-lon(deg),Dxy(km),Dz(km)}
Center radii    : (undefined)
Small perturbers: Yes                             {source: SB441-N16}
Output units    : KM-S
Calendar mode   : Mixed Julian/Gregorian
Output type     : GEOMETRIC cartesian states
Output format   : 2 (position and velocity)
Reference frame : Ecliptic of J2000.0
*******************************************************************************
Initial IAU76/J2000 heliocentric ecliptic osculating elements (au, days, deg.):
  EPOCH=  2457419.5 ! 2016-Feb-01.00 (TDB)         Residual RMS= .25269        
   EC= .07239520902210886  QR= 3.171630228433701   TP= 2458283.8840089273      
   OM= 223.6453158029371   W=  69.61378857755398   IN= 5.718783843404148       
  Equivalent ICRF heliocentric cartesian coordinates (au, au/d):
   X=-3.196956511228321E+00  Y= 1.624821194435433E+00  Z= 3.353209483012407E-01
  VX=-3.628664456706719E-03 VY=-7.499684058828068E-03 VZ=-2.890580214184117E-03
Asteroid physical parameters (km, seconds, rotational period in hours):        
   GM= n.a.                RAD= 31.56              ROTPER= 34.818              
   H= 9.78                 G= .150                 B-V= .743                   
                           ALBEDO= .0509           STYP= D                     
*******************************************************************************
JDTDB
   X     Y     Z
   VX    VY    VZ
*******************************************************************************
$$SOE
2460168.500000000 = A.D. 2023-Aug-12 00:00:00.0000 TDB 
 X =-3.848079701567434E+08 Y =-3.220491613549061E+08 Z =-2.911403045873776E+06
 VX= 1.131110783662536E+01 VY=-1.184608218354617E+01 VZ= 1.646842024545852E+00
$$EOE
*******************************************************************************
 
TIME

  Barycentric Dynamical Time ("TDB" or T_eph) output was requested. This
continuous coordinate time is equivalent to the relativistic proper time
of a clock at rest in a reference frame co-moving with the solar system
barycenter but outside the system's gravity well. It is the independent
variable in the solar system relativistic equations of motion.

  TDB runs at a uniform rate of one SI second per second and is independent
of irregularities in Earth's rotation.
 
CALENDAR SYSTEM

  Mixed calendar mode was active such that calendar dates after AD 1582-Oct-15
(if any) are in the modern Gregorian system. Dates prior to 1582-Oct-5 (if any)
are in the Julian calendar system, which is automatically extended for dates
prior to its adoption on 45-Jan-1 BC.  The Julian calendar is useful for
matching historical dates. The Gregorian calendar more accurately corresponds
to the Earth's orbital motion and seasons. A "Gregorian-only" calendar mode is
available if such physical events are the primary interest.

REFERENCE FRAME AND COORDINATES

  Ecliptic at the standard reference epoch

    Reference epoch: J2000.0
    X-Y plane: adopted Earth orbital plane at the reference epoch
               Note: IAU76 obliquity of 84381.448 arcseconds wrt ICRF X-Y plane
    X-axis   : ICRF
    Z-axis   : perpendicular to the X-Y plane in the directional (+ or -) sense
               of Earth's north pole at the reference epoch.

  Symbol meaning:

    JDTDB    Julian Day Number, Barycentric Dynamical Time
      X      X-component of position vector (km)
      Y      Y-component of position vector (km)
      Z      Z-component of position vector (km)
      VX     X-component of velocity vector (km/sec)                           
      VY     Y-component of velocity vector (km/sec)                           
      VZ     Z-component of velocity vector (km/sec)                           

ABERRATIONS AND CORRECTIONS

 Geometric state vectors have NO corrections or aberrations applied.

Computations by ...

    Solar System Dynamics Group, Horizons On-Line Ephemeris System
    4800 Oak Grove Drive, Jet Propulsion Laboratory
    Pasadena, CA  91109   USA

    General site: https://ssd.jpl.nasa.gov/
    Mailing list: https://ssd.jpl.nasa.gov/email_list.html
    System news : https://ssd.jpl.nasa.gov/horizons/news.html
    User Guide  : https://ssd.jpl.nasa.gov/horizons/manual.html
    Connect     : browser        https://ssd.jpl.nasa.gov/horizons/app.html#/x
                  API            https://ssd-api.jpl.nasa.gov/doc/horizons.html
                  command-line   telnet ssd.jpl.nasa.gov 6775
                  e-mail/batch   https://ssd.jpl.nasa.gov/ftp/ssd/hrzn_batch.txt
                  scripts        https://ssd.jpl.nasa.gov/ftp/ssd/SCRIPTS
    Author      : Jon.D.Giorgini@jpl.nasa.gov
*******************************************************************************
